OBJECT_NAME,OBJECT_ID,EPOCH,MEAN_MOTION,ECCENTRICITY,INCLINATION,RA_OF_ASC_NODE,ARG_OF_PERICENTER,MEAN_ANOMALY,EPHEMERIS_TYPE,CLASSIFICATION_TYPE,NORAD_CAT_ID,ELEMENT_SET_NO,REV_AT_EPOCH,BSTAR,MEAN_MOTION_DOT,MEAN_MOTION_DDOT
STARLINK-3046,2021-082AR,2026-07-19T00:26:01.398336,14.98328808,.00034226,70.0003,303.3387,268.8819,91.1948,0,U,49169,999,26614,-.8990626E-5,-.2E-5,0
STARLINK-3107,2021-082AT,2026-07-19T06:11:13.570944,15.15762468,.00021626,69.9941,308.3298,14.5546,345.5684,0,U,49171,999,26720,.5922666E-3,.11233E-3,0
STARLINK-3045,2021-082AV,2026-07-19T06:32:32.008416,14.98330690,.00031385,70.0013,302.6798,265.6546,94.4255,0,U,49173,999,26618,-.24587557E-4,-.386E-5,0
STARLINK-3087,2021-082AX,2026-07-18T17:26:35.451744,14.97518003,.00032841,69.9999,305.4024,269.5695,90.5087,0,U,49175,999,26606,.78361881E-4,.823E-5,0
STARLINK-3069,2021-082AY,2026-07-19T08:00:01.999872,15.37095719,.00020629,70.0004,279.7699,252.6920,330.7793,0,U,49176,999,580,.10909813E-2,.39794E-3,0
STARLINK-3103,2021-082AZ,2026-07-19T05:50:08.483136,14.98329785,.00036839,69.9984,282.7669,265.7599,94.3139,0,U,49177,999,26786,.886556E-6,-.83E-6,0
STARLINK-3086,2021-082BA,2026-07-18T17:37:46.923168,14.98331827,.00030517,70.0006,324.0322,267.8980,92.1829,0,U,49178,999,26676,.2999399E-5,-.57E-6,0
STARLINK-3043,2021-082BB,2026-07-19T05:32:06.867456,14.98328419,.00035102,69.9984,282.7828,269.6968,90.3789,0,U,49179,999,26666,.25383642E-4,.21E-5,0
STARLINK-3059,2021-082BD,2026-07-19T07:38:58.300512,14.98325998,.00030905,70.0002,322.5733,271.5028,88.5777,0,U,49181,999,26688,.24718239E-4,.202E-5,0
STARLINK-3075,2021-104B,2026-07-18T17:39:13.623840,15.33543823,.00010131,53.1608,357.6044,82.5251,277.5867,0,U,49409,999,25846,.27568333E-4,.534E-5,0
STARLINK-3147,2021-104C,2026-07-19T08:00:01.999872,15.31677693,.00011335,53.1586,354.9004,84.8945,333.3092,0,U,49410,999,580,.1569402E-2,.48619E-3,0
STARLINK-3162,2021-104D,2026-07-19T08:00:01.999872,15.24399645,.00012664,53.1609,347.2458,89.7257,237.3527,0,U,49411,999,581,.33113718E-2,.82812E-3,0
STARLINK-3157,2021-104F,2026-07-19T08:00:01.999872,15.30302142,.0001271,53.1597,346.7372,104.1009,146.6490,0,U,49413,999,582,.27978082E-2,.83706E-3,0
STARLINK-3146,2021-104G,2026-07-19T08:00:01.999872,15.28007997,.00011157,53.1589,356.5760,101.0571,196.1271,0,U,49414,999,581,.308416E-2,.8604E-3,0
STARLINK-3159,2021-104H,2026-07-19T08:00:01.999872,15.30220466,.00008811,53.1618,346.6889,115.7228,178.5028,0,U,49415,999,581,.28645395E-2,.85515E-3,0
STARLINK-3133,2021-104J,2026-07-19T08:00:01.999872,15.30351398,.0001472,53.1595,356.7370,103.9985,150.0578,0,U,49416,999,581,.27746121E-2,.8313E-3,0
STARLINK-3154,2021-104K,2026-07-19T08:00:01.999872,15.23531266,.00018477,53.1593,346.5686,34.9009,343.1549,0,U,49417,999,570,.34713556E-2,.8463E-3,0
STARLINK-3111,2021-104L,2026-07-19T08:00:01.999872,15.30613209,.00011689,53.1598,356.7548,109.4046,155.8159,0,U,49418,999,581,.29057877E-2,.87843E-3,0
STARLINK-3120,2021-104M,2026-07-19T08:00:01.999872,15.23637265,.00018263,53.1609,357.1275,90.8251,44.6929,0,U,49419,999,545,.31539757E-2,.77024E-3,0
STARLINK-3110,2021-104N,2026-07-18T20:54:17.043840,15.35411803,.00014544,53.1616,357.2989,94.7161,265.4008,0,U,49420,999,25846,.34490867E-4,.823E-5,0
STARLINK-3112,2021-104P,2026-07-18T20:00:11.623104,15.31690462,.00011495,53.1604,357.2296,107.2101,252.9026,0,U,49421,999,25846,.99603851E-4,.2726E-4,0
STARLINK-3161,2021-104Q,2026-07-19T08:00:01.999872,15.27734574,.00010312,53.1613,357.0511,89.7430,62.6810,0,U,49422,999,581,.29043699E-2,.80266E-3,0
STARLINK-3135,2021-104S,2026-07-19T08:00:01.999872,15.27257055,.00010915,53.1590,356.8916,134.0222,140.8647,0,U,49424,999,576,.29970618E-2,.81657E-3,0
STARLINK-3139,2021-104T,2026-07-19T03:36:34.564320,15.31685778,.00009932,53.1610,355.7669,103.5912,256.5200,0,U,49425,999,25852,-.36400644E-4,-.1494E-4,0
STARLINK-3114,2021-104U,2026-07-19T08:00:01.999872,15.29999626,.00010977,53.1602,356.6694,65.4947,4.1162,0,U,49426,999,581,.28895865E-2,.85679E-3,0
STARLINK-3131,2021-104V,2026-07-19T03:29:50.690112,15.31693799,.00006929,53.1610,355.7772,91.3837,268.7244,0,U,49427,999,25852,.896032E-6,-.337E-5,0
STARLINK-3121,2021-104W,2026-07-18T19:41:16.567296,15.14184325,.00012895,53.1614,359.5151,90.1995,269.9146,0,U,49428,999,25844,.66975092E-3,.12082E-3,0
STARLINK-3138,2021-104Y,2026-07-19T08:00:01.999872,15.32740479,.00009694,53.1611,356.6757,101.2083,43.2493,0,U,49430,999,581,.27285304E-2,.88143E-3,0
STARLINK-3153,2021-104Z,2026-07-19T08:00:01.999872,15.32390147,.00013036,53.1588,356.6921,93.3234,257.1156,0,U,49431,999,581,.29795418E-2,.95322E-3,0
STARLINK-3158,2021-104AA,2026-07-18T19:25:05.621376,15.29356640,.00009339,53.1616,348.3453,85.9327,274.1780,0,U,49432,999,25859,.17154498E-4,.139E-5,0
STARLINK-3079,2021-104AB,2026-07-18T18:54:56.100384,15.08834947,.00011491,53.1608,340.3173,88.4857,271.6266,0,U,49433,999,25979,.6344714E-5,-.187E-5,0
STARLINK-3134,2021-104AC,2026-07-18T20:57:38.828448,15.10318605,.00009954,53.2178,0.0896,115.4029,244.7067,0,U,49434,999,25952,.50496168E-3,.8087E-4,0
STARLINK-3117,2021-104AD,2026-07-18T17:26:13.695360,15.08843850,.00011875,53.1611,340.5934,86.7581,273.3546,0,U,49435,999,25869,.270001E-3,.4012E-4,0
STARLINK-3049,2021-104AE,2026-07-18T19:00:14.030784,15.08836413,.000099,53.1620,340.2995,101.2633,258.8470,0,U,49436,999,25870,.30204723E-4,.193E-5,0
STARLINK-3130,2021-104AF,2026-07-18T16:16:43.555296,15.33552904,.00009565,53.1623,336.1817,84.1875,275.9237,0,U,49437,999,25875,.27105505E-4,.519E-5,0
STARLINK-3044,2021-104AG,2026-07-18T16:59:43.360800,15.08831137,.00006523,53.1612,340.6104,71.3935,288.7128,0,U,49438,999,25869,-.13506489E-4,-.503E-5,0
STARLINK-3105,2021-104AJ,2026-07-19T02:35:57.829344,15.08834153,.00010626,53.1614,338.8777,88.5115,271.5999,0,U,49440,999,25875,.44305645E-4,.417E-5,0
STARLINK-3128,2021-104AK,2026-07-18T17:44:41.138592,15.34392188,.00010932,53.1621,336.1279,84.8431,275.2696,0,U,49441,999,25876,.48224427E-4,.1253E-4,0
STARLINK-3098,2021-104AL,2026-07-19T01:54:44.142048,15.34388312,.0000975,53.1626,333.8324,77.4652,282.6459,0,U,49442,999,25882,.88247736E-4,.2606E-4,0
STARLINK-3136,2021-104AM,2026-07-18T15:48:42.744384,15.11768546,.00013447,53.2160,340.1653,136.8834,223.2265,0,U,49443,999,25870,.24154194E-3,.3874E-4,0
STARLINK-3126,2021-104AN,2026-07-18T20:05:12.354720,15.08830643,.00011004,53.1607,340.1072,85.1067,275.0050,0,U,49444,999,25871,-.14715474E-4,-.522E-5,0
STARLINK-3122,2021-104AP,2026-07-19T08:00:01.999872,15.33339817,.00009992,53.1609,346.7896,114.6044,185.5697,0,U,49445,999,580,.26871426E-2,.88462E-3,0
STARLINK-3099,2021-104AQ,2026-07-19T02:20:04.401888,15.08829891,.00015293,53.1614,338.9276,96.3790,263.7375,0,U,49446,999,25875,.39047549E-4,.333E-5,0
STARLINK-3115,2021-104AR,2026-07-19T08:00:01.999872,15.31676051,.00010355,53.1598,345.9185,92.2171,338.1636,0,U,49447,999,581,.15616098E-2,.48372E-3,0
STARLINK-3137,2021-104AT,2026-07-18T14:52:32.894688,15.53929745,.00029793,53.2124,302.5931,348.9031,11.1914,0,U,49449,999,25923,.56970043E-3,.37089E-3,0
STARLINK-3127,2021-104AU,2026-07-19T08:00:01.999872,15.24438986,.00015431,53.1589,347.2865,45.4930,21.1675,0,U,49450,999,566,.30402012E-2,.76022E-3,0
STARLINK-3125,2021-104AV,2026-07-19T08:00:01.999872,15.27856292,.00009687,53.1590,346.6680,89.7145,354.7632,0,U,49451,999,581,.29295568E-2,.81278E-3,0
STARLINK-3150,2021-104AW,2026-07-18T20:05:03.546240,15.29358123,.00009213,53.1603,348.1614,95.8628,264.2478,0,U,49452,999,25860,.35628828E-4,.673E-5,0
STARLINK-3129,2021-104AX,2026-07-19T02:25:12.537984,15.31698612,.00011242,53.1598,344.0889,91.4290,268.6840,0,U,49453,999,25868,.24944285E-4,.409E-5,0
STARLINK-3160,2021-104AY,2026-07-19T08:00:01.999872,15.32176403,.00021917,53.1586,346.5837,83.2247,63.6300,0,U,49454,999,581,.36633128E-2,.116838E-2,0
STARLINK-3145,2021-104AZ,2026-07-19T08:00:01.999872,15.31904980,.00015306,53.1592,346.6247,101.9183,105.0837,0,U,49455,999,581,.26209757E-2,.82397E-3,0
STARLINK-3124,2021-104BA,2026-07-19T08:00:01.999872,15.30457136,.00016659,53.1596,346.7129,71.6904,49.2502,0,U,49456,999,580,.26904736E-2,.80838E-3,0
STARLINK-3132,2021-104BB,2026-07-18T21:36:35.645184,15.29793559,.00010772,53.1617,347.9365,68.8835,291.2281,0,U,49457,999,25860,.19027282E-2,.5571E-3,0
STARLINK-3156,2021-104BC,2026-07-19T08:00:01.999872,15.29912279,.00018162,53.1589,346.6902,86.2269,66.7621,0,U,49458,999,555,.26077492E-2,.76989E-3,0
STARLINK-3141,2021-104BD,2026-07-19T08:00:01.999872,15.22046035,.00006652,53.1590,347.0748,80.4039,295.4237,0,U,49459,999,575,.35294794E-2,.8232E-3,0
STARLINK-3140,2021-104BE,2026-07-19T08:00:01.999872,15.28037555,.0000668,53.1594,346.7802,53.4112,134.3756,0,U,49460,999,580,.26331716E-2,.73347E-3,0
STARLINK-3219,2021-115A,2026-07-18T22:39:21.385728,15.31719720,.00011942,53.1620,275.6682,28.2558,331.8508,0,U,49724,999,25540,.13969626E-3,.3975E-4,0
STARLINK-3218,2021-115B,2026-07-19T08:00:01.999872,15.26527473,.00014023,53.1611,277.1175,84.7265,207.3755,0,U,49725,999,575,.62848692E-3,.16327E-3,0
STARLINK-3242,2021-115D,2026-07-19T08:00:01.999872,15.34985952,.00009242,53.1598,285.5785,88.2014,106.9622,0,U,49727,999,581,.84052264E-3,.28665E-3,0
STARLINK-3240,2021-115E,2026-07-17T20:22:40.924128,15.34385926,.00012168,53.1610,291.6036,71.0051,289.1083,0,U,49728,999,25508,-.6597557E-5,-.599E-5,0
STARLINK-3251,2021-115F,2026-07-19T06:26:01.219488,15.30653547,.00044513,53.1580,286.1819,124.8452,235.2968,0,U,49729,999,25528,.36665012E-2,.111448E-2,0
STARLINK-3249,2021-115G,2026-07-19T08:00:01.999872,15.35408942,.00011136,53.1596,285.3086,85.1386,165.5026,0,U,49730,999,580,-.37772816E-3,-.13536E-3,0
STARLINK-3246,2021-115J,2026-07-19T05:16:46.764480,15.29352177,.00011585,53.1591,286.3960,80.9739,279.1392,0,U,49732,999,25527,.15638129E-4,.95E-6,0
STARLINK-3252,2021-115K,2026-07-19T08:00:01.999872,15.31713324,.00012934,53.1587,285.9186,94.6713,185.6186,0,U,49733,999,580,-.42153905E-3,-.13428E-3,0
